[{"OBJECT_NAME":"ONEWEB-0042","OBJECT_ID":"2020-020T","EPOCH":"2026-03-09T22:29:18.366432","MEAN_MOTION":13.11414995,"ECCENTRICITY":0.00017227,"INCLINATION":87.8867,"RA_OF_ASC_NODE":40.7856,"ARG_OF_PERICENTER":82.5034,"MEAN_ANOMALY":277.6289,"EPHEMERIS_TYPE":0,"CLASSIFICATION_TYPE":"U","NORAD_CAT_ID":45441,"ELEMENT_SET_NO":999,"REV_AT_EPOCH":28965,"BSTAR":-0.0012164144,"MEAN_MOTION_DOT":-4.18e-6,"MEAN_MOTION_DDOT":0},{"OBJECT_NAME":"FENGYUN 1C DEB","OBJECT_ID":"1999-025CZR","EPOCH":"2026-03-04T09:42:18.265248","MEAN_MOTION":13.35690242,"ECCENTRICITY":0.0454952,"INCLINATION":97.3129,"RA_OF_ASC_NODE":286.6868,"ARG_OF_PERICENTER":187.8485,"MEAN_ANOMALY":171.5358,"EPHEMERIS_TYPE":0,"CLASSIFICATION_TYPE":"U","NORAD_CAT_ID":32372,"ELEMENT_SET_NO":999,"REV_AT_EPOCH":61230,"BSTAR":0.0018926583,"MEAN_MOTION_DOT":1.716e-5,"MEAN_MOTION_DDOT":0}]
